start=new Date('2023-03-20T00:00:00.000Z').valueOf();
sats=[{"ELEMENT_SET_NO":"999","APOAPSIS":"540.519","FILE":"3865354","EPOCH":"2023-03-19T18:19:25.010688","DECAY_DATE":null,"ARG_OF_PERICENTER":"86.5514","LAUNCH_DATE":"2022-09-05","MEAN_ELEMENT_THEORY":"SGP4","BSTAR":"0.00030807000000","MEAN_MOTION_DDOT":"0.0000000000000","TLE_LINE1":"1 53745U 22107AX  23078.76348392  .00004616  00000-0  30807-3 0  9996","INCLINATION":"53.2152","PERIAPSIS":"539.092","CENTER_NAME":"EARTH","RA_OF_ASC_NODE":"99.1629","MEAN_MOTION":"15.08820370","OBJECT_TYPE":"PAYLOAD","TLE_LINE2":"2 53745  53.2152  99.1629 0001031  86.5514 273.5596 15.08820370 30659","OBJECT_ID":"2022-107AX","MEAN_ANOMALY":"273.5596","TIME_SYSTEM":"UTC","REF_FRAME":"TEME","REV_AT_EPOCH":"3065","GP_ID":"228480559","CLASSIFICATION_TYPE":"U","RCS_SIZE":"LARGE","EPHEMERIS_TYPE":"0","PERIOD":"95.439","SEMIMAJOR_AXIS":"6917.940","OBJECT_NAME":"STARLINK-4656","MEAN_MOTION_DOT":"0.00004616","NORAD_CAT_ID":"53745","ECCENTRICITY":"0.00010310","COUNTRY_CODE":"US","SITE":"AFETR"},{"ECCENTRICITY":"0.00021920","COUNTRY_CODE":"US","SITE":"AFETR","EPHEMERIS_TYPE":"0","PERIOD":"95.438","CLASSIFICATION_TYPE":"U","RCS_SIZE":"LARGE","NORAD_CAT_ID":"53746","MEAN_MOTION_DOT":"0.00000832","OBJECT_NAME":"STARLINK-4589","SEMIMAJOR_AXIS":"6917.900","TIME_SYSTEM":"UTC","OBJECT_ID":"2022-107AY","MEAN_ANOMALY":"265.6247","GP_ID":"228479309","REV_AT_EPOCH":"3065","REF_FRAME":"TEME","MEAN_MOTION":"15.08833614","OBJECT_TYPE":"PAYLOAD","TLE_LINE2":"2 53746  53.2165  99.1133 0002192  94.4996 265.6247 15.08833614 30655","TLE_LINE1":"1 53746U 22107AY  23078.75610073  .00000832  00000-0  70405-4 0  9999","MEAN_MOTION_DDOT":"0.0000000000000","BSTAR":"0.00007040500000","RA_OF_ASC_NODE":"99.1133","INCLINATION":"53.2165","PERIAPSIS":"538.249","CENTER_NAME":"EARTH","EPOCH":"2023-03-19T18:08:47.103072","DECAY_DATE":null,"ARG_OF_PERICENTER":"94.4996","MEAN_ELEMENT_THEORY":"SGP4","LAUNCH_DATE":"2022-09-05","ELEMENT_SET_NO":"999","FILE":"3865354","APOAPSIS":"541.281"},{"FILE":"3865354","APOAPSIS":"540.756","ELEMENT_SET_NO":"999","MEAN_ELEMENT_THEORY":"SGP4","LAUNCH_DATE":"2022-09-05","DECAY_DATE":null,"ARG_OF_PERICENTER":"90.2246","EPOCH":"2023-03-19T13:38:32.344224","RA_OF_ASC_NODE":"100.0776","CENTER_NAME":"EARTH","PERIAPSIS":"538.689","INCLINATION":"53.2177","TLE_LINE1":"1 53748U 22107BA  23078.56842991  .00002432  00000-0  17083-3 0  9996","MEAN_MOTION_DDOT":"0.0000000000000","BSTAR":"0.00017083000000","OBJECT_TYPE":"PAYLOAD","TLE_LINE2":"2 53748  53.2177 100.0776 0001494  90.2246 269.8917 15.08847369 30620","MEAN_MOTION":"15.08847369","REV_AT_EPOCH":"3062","GP_ID":"228479559","REF_FRAME":"TEME","TIME_SYSTEM":"UTC","MEAN_ANOMALY":"269.8917","OBJECT_ID":"2022-107BA","OBJECT_NAME":"STARLINK-4669","MEAN_MOTION_DOT":"0.00002432","NORAD_CAT_ID":"53748","SEMIMAJOR_AXIS":"6917.858","PERIOD":"95.437","EPHEMERIS_TYPE":"0","RCS_SIZE":"LARGE","CLASSIFICATION_TYPE":"U","SITE":"AFETR","COUNTRY_CODE":"US","ECCENTRICITY":"0.00014940"},{"OBJECT_TYPE":"PAYLOAD","TLE_LINE2":"2 53749  53.2164  99.1718 0001260  86.6765 273.4371 15.08843913 30656","MEAN_MOTION":"15.08843913","RA_OF_ASC_NODE":"99.1718","CENTER_NAME":"EARTH","PERIAPSIS":"538.862","INCLINATION":"53.2164","TLE_LINE1":"1 53749U 22107BB  23078.77083521  .00001930  00000-0  13927-3 0  9991","MEAN_MOTION_DDOT":"0.0000000000000","BSTAR":"0.00013927000000","MEAN_ELEMENT_THEORY":"SGP4","LAUNCH_DATE":"2022-09-05","DECAY_DATE":null,"ARG_OF_PERICENTER":"86.6765","EPOCH":"2023-03-19T18:30:00.162144","FILE":"3865354","APOAPSIS":"540.605","ELEMENT_SET_NO":"999","SITE":"AFETR","COUNTRY_CODE":"US","ECCENTRICITY":"0.00012600","MEAN_MOTION_DOT":"0.00001930","OBJECT_NAME":"STARLINK-4680","NORAD_CAT_ID":"53749","SEMIMAJOR_AXIS":"6917.868","PERIOD":"95.437","EPHEMERIS_TYPE":"0","RCS_SIZE":"LARGE","CLASSIFICATION_TYPE":"U","GP_ID":"228480311","REV_AT_EPOCH":"3065","REF_FRAME":"TEME","TIME_SYSTEM":"UTC","MEAN_ANOMALY":"273.4371","OBJECT_ID":"2022-107BB"},{"EPOCH":"2023-03-19T18:35:18.608352","DECAY_DATE":null,"ARG_OF_PERICENTER":"86.8868","LAUNCH_DATE":"2022-09-05","MEAN_ELEMENT_THEORY":"SGP4","ELEMENT_SET_NO":"999","FILE":"3865354","APOAPSIS":"540.713","MEAN_MOTION":"15.08843103","TLE_LINE2":"2 53750  53.2160  99.2328 0001413  86.8868 273.2286 15.08843103 30663","OBJECT_TYPE":"PAYLOAD","TLE_LINE1":"1 53750U 22107BC  23078.77452093  .00001573  00000-0  11689-3 0  9993","MEAN_MOTION_DDOT":"0.0000000000000","BSTAR":"0.00011689000000","RA_OF_ASC_NODE":"99.2328","INCLINATION":"53.2160","CENTER_NAME":"EARTH","PERIAPSIS":"538.758","TIME_SYSTEM":"UTC","OBJECT_ID":"2022-107BC","MEAN_ANOMALY":"273.2286","REV_AT_EPOCH":"3066","GP_ID":"228480059","REF_FRAME":"TEME","ECCENTRICITY":"0.00014130","COUNTRY_CODE":"US","SITE":"AFETR","EPHEMERIS_TYPE":"0","PERIOD":"95.437","CLASSIFICATION_TYPE":"U","RCS_SIZE":"LARGE","NORAD_CAT_ID":"53750","OBJECT_NAME":"STARLINK-4612","MEAN_MOTION_DOT":"0.00001573","SEMIMAJOR_AXIS":"6917.871"},{"MEAN_ELEMENT_THEORY":"SGP4","LAUNCH_DATE":"2022-09-11","EPOCH":"2023-03-19T09:32:04.910784","ARG_OF_PERICENTER":"89.7006","DECAY_DATE":null,"FILE":"3865310","APOAPSIS":"540.587","ELEMENT_SET_NO":"999","OBJECT_TYPE":"PAYLOAD","TLE_LINE2":"2 53773  53.2148 120.5967 0001319  89.7006 270.4137 15.08863285 28756","MEAN_MOTION":"15.08863285","RA_OF_ASC_NODE":"120.5967","INCLINATION":"53.2148","PERIAPSIS":"538.762","CENTER_NAME":"EARTH","TLE_LINE1":"1 53773U 22111A   23078.39727906  .00005291  00000-0  35003-3 0  9996","BSTAR":"0.00035003000000","MEAN_MOTION_DDOT":"0.0000000000000","REV_AT_EPOCH":"2875","GP_ID":"228453638","REF_FRAME":"TEME","TIME_SYSTEM":"UTC","OBJECT_ID":"2022-111A","MEAN_ANOMALY":"270.4137","COUNTRY_CODE":"US","SITE":"AFETR","ECCENTRICITY":"0.00013190","NORAD_CAT_ID":"53773","MEAN_MOTION_DOT":"0.00005291","OBJECT_NAME":"STARLINK-4718","SEMIMAJOR_AXIS":"6917.809","EPHEMERIS_TYPE":"0","PERIOD":"95.436","CLASSIFICATION_TYPE":"U","RCS_SIZE":"LARGE"},{"REV_AT_EPOCH":"2971","GP_ID":"228447123","REF_FRAME":"TEME","TIME_SYSTEM":"UTC","OBJECT_ID":"2022-111B","MEAN_ANOMALY":"274.8942","COUNTRY_CODE":"US","SITE":"AFETR","ECCENTRICITY":"0.00013210","OBJECT_NAME":"STARLINK-4719","NORAD_CAT_ID":"53774","MEAN_MOTION_DOT":"0.00020240","SEMIMAJOR_AXIS":"6917.849","EPHEMERIS_TYPE":"0","PERIOD":"95.437","CLASSIFICATION_TYPE":"U","RCS_SIZE":"LARGE","MEAN_ELEMENT_THEORY":"SGP4","LAUNCH_DATE":"2022-09-11","EPOCH":"2023-03-19T09:26:46.919904","DECAY_DATE":null,"ARG_OF_PERICENTER":"85.2201","FILE":"3865049","APOAPSIS":"540.628","ELEMENT_SET_NO":"999","OBJECT_TYPE":"PAYLOAD","TLE_LINE2":"2 53774  53.2168 120.5777 0001321  85.2201 274.8942 15.08850158 29713","MEAN_MOTION":"15.08850158","RA_OF_ASC_NODE":"120.5777","INCLINATION":"53.2168","PERIAPSIS":"538.800","CENTER_NAME":"EARTH","TLE_LINE1":"1 53774U 22111B   23078.39359861  .00020240  00000-0  12858-2 0  9991","BSTAR":"0.00128580000000","MEAN_MOTION_DDOT":"0.0000000000000"},{"TIME_SYSTEM":"UTC","OBJECT_ID":"2022-111C","MEAN_ANOMALY":"277.9529","GP_ID":"228480061","REV_AT_EPOCH":"2976","REF_FRAME":"TEME","EPHEMERIS_TYPE":"0","PERIOD":"95.438","CLASSIFICATION_TYPE":"U","RCS_SIZE":"LARGE","MEAN_MOTION_DOT":"-0.00000749","OBJECT_NAME":"STARLINK-4722","NORAD_CAT_ID":"53775","SEMIMAJOR_AXIS":"6917.900","ECCENTRICITY":"0.00011540","COUNTRY_CODE":"US","SITE":"AFETR","ELEMENT_SET_NO":"999","FILE":"3865354","APOAPSIS":"540.564","EPOCH":"2023-03-19T19:42:52.818624","DECAY_DATE":null,"ARG_OF_PERICENTER":"82.1594","LAUNCH_DATE":"2022-09-11","MEAN_ELEMENT_THEORY":"SGP4","TLE_LINE1":"1 53775U 22111C   23078.82144466 -.00000749  00000-0 -29005-4 0  9991","MEAN_MOTION_DDOT":"0.0000000000000","BSTAR":"-0.00002900500000","RA_OF_ASC_NODE":"109.0080","INCLINATION":"53.2164","CENTER_NAME":"EARTH","PERIAPSIS":"538.967","MEAN_MOTION":"15.08833470","TLE_LINE2":"2 53775  53.2164 109.0080 0001154  82.1594 277.9529 15.08833470 29762","OBJECT_TYPE":"PAYLOAD"},{"MEAN_ELEMENT_THEORY":"SGP4","LAUNCH_DATE":"2022-09-11","DECAY_DATE":null,"ARG_OF_PERICENTER":"87.9012","EPOCH":"2023-03-19T19:28:56.498592","FILE":"3865354","APOAPSIS":"540.493","ELEMENT_SET_NO":"999","OBJECT_TYPE":"PAYLOAD","TLE_LINE2":"2 53776  53.2163 113.9345 0001083  87.9012 272.2104 15.08840685 29975","MEAN_MOTION":"15.08840685","RA_OF_ASC_NODE":"113.9345","PERIAPSIS":"538.994","CENTER_NAME":"EARTH","INCLINATION":"53.2163","TLE_LINE1":"1 53776U 22111D   23078.81176503  .00001162  00000-0  91049-4 0  9993","BSTAR":"0.00009104900000","MEAN_MOTION_DDOT":"0.0000000000000","REV_AT_EPOCH":"2997","GP_ID":"228478811","REF_FRAME":"TEME","TIME_SYSTEM":"UTC","MEAN_ANOMALY":"272.2104","OBJECT_ID":"2022-111D","SITE":"AFETR","COUNTRY_CODE":"US","ECCENTRICITY":"0.00010830","NORAD_CAT_ID":"53776","OBJECT_NAME":"STARLINK-4708","MEAN_MOTION_DOT":"0.00001162","SEMIMAJOR_AXIS":"6917.878","PERIOD":"95.438","EPHEMERIS_TYPE":"0","RCS_SIZE":"LARGE","CLASSIFICATION_TYPE":"U"},{"REV_AT_EPOCH":"2969","GP_ID":"228446884","REF_FRAME":"TEME","TIME_SYSTEM":"UTC","OBJECT_ID":"2022-111E","MEAN_ANOMALY":"280.9994","COUNTRY_CODE":"US","SITE":"AFETR","ECCENTRICITY":"0.00008890","OBJECT_NAME":"STARLINK-4664","NORAD_CAT_ID":"53777","MEAN_MOTION_DOT":"0.00005351","SEMIMAJOR_AXIS":"6917.840","EPHEMERIS_TYPE":"0","PERIOD":"95.437","CLASSIFICATION_TYPE":"U","RCS_SIZE":"LARGE","LAUNCH_DATE":"2022-09-11","MEAN_ELEMENT_THEORY":"SGP4","EPOCH":"2023-03-19T08:24:34.005312","ARG_OF_PERICENTER":"79.1099","DECAY_DATE":null,"FILE":"3865049","APOAPSIS":"540.320","ELEMENT_SET_NO":"999","TLE_LINE2":"2 53777  53.2160 111.0450 0000889  79.1099 280.9994 15.08853375 29692","OBJECT_TYPE":"PAYLOAD","MEAN_MOTION":"15.08853375","RA_OF_ASC_NODE":"111.0450","INCLINATION":"53.2160","CENTER_NAME":"EARTH","PERIAPSIS":"539.090","TLE_LINE1":"1 53777U 22111E   23078.35039358  .00005351  00000-0  35387-3 0  9995","MEAN_MOTION_DDOT":"0.0000000000000","BSTAR":"0.00035387000000"}];
